#dP2023  1 16  0  0  0.00000000      96 __u+U ITR14 FIT  IAC
## 2245  86400.00000000   900.00000000 59960 0.0000000000000
+  129   C01C02C03C04C05C06C07C08C09C10C11C12C13C14C16C19C20
+        C21C22C23C24C25C26C27C28C29C30C32C33C34C35C36C37C38
+        C39C40C41C42C43C44C45C46C60E01E02E03E04E05E07E08E09
+        E10E11E12E13E14E15E18E19E21E24E25E26E27E30E31E33E34
+        E36G01G02G03G04G05G06G07G08G09G10G11G12G13G14G15G16
+        G17G18G19G20G21G22G23G24G25G26G27G29G30G31G32J02J03
+        J04J07R01R02R03R04R05R06R07R08R09R10R11R12R13R14R15
+        R16R17R18R19R20R21R22R23R24R25  0  0  0  0  0  0  0
++        17 17 17 17 17  9  9 10  9  9  9  9  9 11  9  7  7
++         7  7  7  7  7  7  7  7  7  7  7  7  8  7  7  7  8
++         8  8  7  8  7  8  7  7 17  4  4  4  4  5  4  4  4
++         4  4  4  4  5  5  4  4  4  4  4  4  4  5  4  4  5
++         4  4  4  4  4  4  4  4  4  4  4  4  4  4  4  4  4
++         3  4  4  4  4  4  4  4  4  4  4  4  4  4  4  8  8
++         9 17  7  6  6  6  6 15  6  6  6 15  6  6  8  6  6
++         6  6  6  8  8  6  6 15  6  8  0  0  0  0  0  0  0
%c M  cc GPS ccc cccc cccc cccc cccc ccccc ccccc ccccc ccccc
%c cc cc ccc ccc cccc cccc cccc cccc ccccc ccccc ccccc ccccc
%f  0.0000000  0.000000000  0.00000000000  0.000000000000000
%f  0.0000000  0.000000000  0.00000000000  0.000000000000000
%i    0    0    0    0      0      0      0      0         0
%i    0    0    0    0      0      0      0      0         0
/* INFORMATION & ANALYSIS CENTER (IAC)            RAPID DATA
/* S/V CLOCKS ARE ALIGNED TO GNSS TIME                      
/* G:C1WC2W R:C1PC2P E:C1XC5X C:C2IC6I J:C1CC2S             
/* PCV:IGS20_2239 OL/AL:FES2004  NONE     YN ORB:CoN CLK:CoN
*  2023 01 16 22 45  0.00000000
PC01 -34350.628909  24413.652348    323.550740    918.984110
PC02   4423.581381  41957.012594   1065.752125   -173.968712
PC03 -14838.901863  39485.657101    925.732371     84.303504
PC04 -39620.284769  14366.105268   -297.279760   -192.592307
PC05  21836.076055  36079.906954   1517.144589    255.315580
PC06  -3764.077700  38493.925071  17093.480915   -185.805100
PC07  -8566.306834  25952.246100 -32057.241881      5.773868
PC08 -17977.438565  33082.704817  18827.732612 999999.999999
PC09    548.842213  41379.374848   9807.450118    290.450979
PC10  -2006.318300  26943.924059 -32045.122363     30.848063
PC11   9949.962537 -14347.645906  21846.158839   -173.992822
PC12  17214.580120   5093.902491  21406.602641    401.264544
PC13 -12820.732427  33443.329656  22184.180694    185.003202
PC14  18817.545186 -10028.746893 -17957.876048    375.847110
PC16  -4724.052817  37546.817364  19085.390914     80.432795
PC19  -9151.316323  14146.934365  22272.907083   -896.788396
PC20 -24519.102110   5294.779720  12265.175764    764.348294
PC21  26207.219412   7493.526851   5958.953151   -916.406840
PC22  12222.132852  15278.447358  19890.331180   -682.101819
PC23  -1502.528104 -20455.461047  18922.333706   -871.813301
PC24  21364.335346 -12390.218862 -13043.214943   -532.147461
PC25  12934.331063 -24171.464620   5271.306832     56.612871
PC26  16738.022068   3910.007707 -22008.397921    -65.321182
PC27 -17844.220903 -13844.796869 -16397.047193     82.610214
PC28 -11156.139803 -25553.041528  -1152.545255     59.694098
PC29  -2210.789377  22622.822778 -16194.743557     68.365496
PC30 -14882.534566   5785.989352 -22889.190841      1.266613
PC32 -26254.545782  -7312.582057  -5994.963196   -648.264328
PC33   9162.868343 -14187.467204 -22208.375516   -880.261582
PC34  14359.159975  -7053.594744  22856.303191     85.202547
PC35  11264.961100  25556.461417   -172.570742    497.550897
PC36 -13937.134136  23716.043673  -4641.554708   -689.923743
PC37 -15782.684681  -5741.700528  22287.496382   -845.814730
PC38 -22833.886514  33843.381924  10240.274846     52.408608
PC39  -7318.867996  33645.171823  24498.733651     -1.454027
PC40 -13569.940549  19557.260740 -34825.084953    -12.722075
PC41 -11672.256361 -15353.177346 -20115.890219   -501.864979
PC42  25164.966974  -4526.396222 -11117.599749   -891.692597
PC43   2961.397474 -22163.973263  16673.587025      2.419784
PC44  18411.486853  13393.819404  16150.497436    179.458094
PC45   1801.771445  20143.610609 -19224.061270    -48.435748
PC46 -21175.055229  13944.593981  11599.367711    -26.921082
PC60   7288.189871  41530.005550    165.808090     -0.567009
PE01 -18329.078774  17952.000418 -14753.328959   -595.509113
PE02  18043.385341 -18038.777170  15022.534072     15.124036
PE03   6232.435703 -16429.642967 -23826.642415   -640.620563
PE04  12756.830126  22712.101065  14064.249376    -37.697110
PE05  22012.432593   -316.498998 -19789.868680   -104.510472
PE07 -24690.261373 -15779.960954   4204.302886    -15.701238
PE08 -12767.144005 -22618.069888 -14206.422037    -20.597656
PE09  24654.865001  15868.920767  -4031.221678   -802.541581
PE10   8469.047705  22076.220075  17805.173438   -505.581720
PE11  13583.057285  12017.184483  23394.421505    489.825379
PE12   2489.259372  27778.392550   9949.500169   -386.770055
PE13 -13190.739021 -12928.515180 -23119.094733    429.880458
PE14 -14483.441007 -23943.987702   7711.945309    115.388592
PE15  -2291.847941 -27883.829863  -9643.734249    693.691404
PE18   2136.766024  22380.785887 -16606.609716   -501.175032
PE19  -8775.761918  14539.994939  24246.161903  -3469.693000
PE21 -27932.393910   9598.733813   1851.668051   -506.661434
PE24  21823.723029   5694.261021 -19204.339618  -1061.862516
PE25  27995.621668  -9392.340886  -2166.313477   -597.331066
PE26 -16310.808734  10299.248170 -22440.501675  -1849.371204
PE27 -22406.753190  -4946.248506  18686.835496   -489.386390
PE30  -2913.180291 -16736.543973  24228.534626  -1165.955378
PE31   3767.937877  16415.046067 -24338.521238   -513.504246
PE33  -9866.655773  26278.403063  -9400.248743   -454.086084
PE34   9742.527718 -26376.402059   9260.007489    -25.193867
PE36  16236.936259  -9407.399077  22897.732172   -491.465744
PG01  13430.777720 -17901.755183  13711.692945    223.579032
PG02 -10558.674932  21522.289355 -11038.695128   -626.881720
PG03  21781.604026 -12769.821308  -8183.083981   -371.737526
PG04  11903.338332  -9548.072045 -21740.199290    -47.301840
PG05 -25419.759976   4456.875462  -6701.148137   -112.252830
PG06  -7027.311093 -19228.967846 -16800.230825    559.539269
PG07   6036.337046 -25567.049100   -569.366821    257.630438
PG08  19973.133850    959.801407  17618.632591   -103.917791
PG09    736.571445 -17832.580125 -19733.075875   -235.241863
PG10   6670.485449  13497.467802  22067.195010    -20.690992
PG11 -13765.761749  -6713.531912 -21691.625841    -80.406238
PG12 -23210.644084  10778.899838  -7179.249425   -328.933736
PG13 -20490.063515  -9697.468655  13818.510501    460.538160
PG14  -3504.943414 -15056.856837  21600.317371    -47.937912
PG15 -19996.186464   1686.923379  17082.513828      5.227843
PG16  25190.337558    962.467240  -9380.421059   -523.628401
PG17 -10327.931200 -21763.143299  11517.190778    693.811455
PG18  -4655.809582  25984.628549   2114.699708   -101.889406
PG19 -17721.421689 -19977.130542     80.751362    265.045824
PG20 -20465.808104  -2867.950752 -16534.562785    456.626126
PG21  15282.276388  -9214.738254  20004.834906    153.490906
PG22  19193.036001  18304.975263  -2197.090820    407.368088
PG23  -6212.321419  16516.863630  19806.208699      2.697407
PG24 -14229.956522  14455.836093  16577.879303    -33.011123
PG25 -15636.271321  15970.746089 -14434.312615    411.915070
PG26  17526.855726   7855.674247 -18588.269638    240.398500
PG27  22235.609915  11384.287154   9381.792498    125.344862
PG29  -4468.713620  15764.481035 -20930.127138   -580.802984
PG30  -2586.102630 -24083.814980  10683.249168   -533.078411
PG31   8781.246303  17562.469785 -17834.321830   -206.522568
PG32  14152.636090  20879.373069   8800.386934   -366.269295
PJ02 -36178.945164  18444.306471  -6783.035922     -0.587961
PJ03 -19051.980198  28660.561133 -19629.613101     -0.056559
PJ04 -27242.317547  28863.667514  20552.178371    119.073301
PJ07 -25367.344015  33681.691719     41.307845     -0.047831
PR01  14731.964212  -5648.265951 -20040.075539     21.375207
PR02  -4537.202666 -12289.660290 -21830.286093    -23.317537
PR03 -20150.154091 -11632.493317 -10338.771165     70.971069
PR04 -24171.762020  -4713.182019   6641.464587    172.524665
PR05 -15064.307489   4806.204687  20016.091920    106.298205
PR06   6154.969410  12467.550140  21381.289392    -90.709601
PR07  20639.194394  11507.222267   9714.399471     48.136894
PR08  24206.114178   4546.864011  -6649.012932    -69.051104
PR09  -6792.048307  17961.656894 -16817.874570     98.942428
PR10   6784.726828   8766.435346 -22985.502047    -89.650242
PR11  18262.536317  -6219.047306 -16675.440644      5.684211
PR12  18526.287365 -17531.400052    853.048403     24.372115
PR13   8429.711997 -18233.448346  15704.162249    -31.024162
PR14  -8192.802791  -7589.356475  22938.393015     24.233196
PR15 -18782.551539   6824.938857  15863.982400     91.670444
PR16 -18514.226769  17561.923770   -458.801614     10.057185
PR17  -9927.838470 -19995.517587 -12359.877005    596.417660
PR18 -11198.597080  -4656.573276 -22410.676311     62.140080
PR19  -7652.655034  11593.642022 -21387.362141   -218.476760
PR20   1623.901446  24824.841725  -5725.478771    -85.981705
PR21  10180.601106  18851.298504  13832.326765   -365.976756
PR22  11391.429447   4160.327248  22473.511454     66.922741
PR23   5452.741207 -16246.541440  18889.561992    -69.364389
PR24  -2572.553831 -24872.013148   5096.649074    140.088778
PR25   9025.072517  20606.205378  12017.948655     51.805396
EOF
